      2.10          N: GNSS NAV DATA                        RINEX VERSION / TYPE
fic2rin                                 08/05/2021 00:17:09 PGM / RUN BY / DATE
                                                            END OF HEADER
 5 21  8  4 16  0  0.0-5.005532875657e-05-1.250555214938e-12 0.000000000000e+00
    3.800000000000e+01-8.484375000000e+01 4.396968865688e-09-1.256133276044e+00
   -4.351139068604e-06 6.103124353103e-03 9.370967745781e-06 5.153569744110e+03
    3.168000000000e+05 1.061707735062e-07 2.593167886571e+00 1.136213541031e-07
    9.574028222076e-01 1.962187500000e+02 9.572145095408e-01-7.836397845996e-09
    1.035757429169e-10 1.000000000000e+00 2.169000000000e+03 0.000000000000e+00
    2.400000000000e+00 0.000000000000e+00-1.117587089539e-08 3.800000000000e+01
    3.096000000000e+05 4.000000000000e+00
13 21  8  4 16  0  0.0 1.668231561780e-04 5.115907697473e-12 0.000000000000e+00
    1.100000000000e+01 4.656250000000e+00 4.425898642158e-09-2.168598186545e+00
    3.296881914139e-07 5.205780733377e-03 6.891787052155e-06 5.153674776077e+03
    3.168000000000e+05 1.303851604462e-08-2.473580218911e+00-8.009374141693e-08
    9.682856482753e-01 2.519062500000e+02 9.551316097054e-01-7.717464320509e-09
    2.153661137202e-10 1.000000000000e+00 2.169000000000e+03 0.000000000000e+00
    2.400000000000e+00 0.000000000000e+00-1.117587089539e-08 1.100000000000e+01
    3.096000000000e+05 4.000000000000e+00
12 21  8  4 16  0  0.0-7.820222526789e-05-5.343281372916e-12 0.000000000000e+00
    6.700000000000e+01 8.409375000000e+01 3.952664644348e-09 1.076351060079e+00
    4.243105649948e-06 8.261893410236e-03 9.600073099136e-06 5.153705863953e+03
    3.168000000000e+05-1.173466444016e-07-4.395019257622e-01-5.587935447693e-09
    9.729287249695e-01 1.985312500000e+02 1.230885892047e+00-7.830326164515e-09
   -1.550064566411e-10 1.000000000000e+00 2.169000000000e+03 0.000000000000e+00
    2.400000000000e+00 0.000000000000e+00-1.257285475731e-08 6.700000000000e+01
    3.096000000000e+05 4.000000000000e+00
 8 21  8  4 16  0  0.0-3.134598955512e-05-1.477928890381e-12 0.000000000000e+00
    9.900000000000e+01 7.915625000000e+01 4.424827168955e-09-1.554628707703e+00
    3.848224878311e-06 6.380748469383e-03 3.762543201447e-06 5.153636594772e+03
    3.168000000000e+05 2.607703208923e-08 5.174942593474e-01-8.568167686462e-08
    9.669297177839e-01 3.100312500000e+02 5.882961794115e-02-8.147482232481e-09
    3.142988060926e-10 1.000000000000e+00 2.169000000000e+03 0.000000000000e+00
    2.400000000000e+00 0.000000000000e+00 5.122274160385e-09 9.900000000000e+01
    3.096000000000e+05 4.000000000000e+00
 6 21  8  4 16  0  0.0 5.057593807578e-05 6.139089236967e-12 0.000000000000e+00
    5.400000000000e+01-8.693750000000e+01 4.201246427349e-09 2.668865637538e+00
   -4.325062036514e-06 2.147875376977e-03 3.697350621223e-06 5.153552389145e+03
    3.168000000000e+05 1.098960638046e-07 1.585493088551e+00 6.332993507385e-08
    9.842437965162e-01 3.194687500000e+02-9.690933238839e-01-8.053906906122e-09
   -1.500062483624e-10 1.000000000000e+00 2.169000000000e+03 0.000000000000e+00
    2.400000000000e+00 0.000000000000e+00 3.725290298462e-09 5.400000000000e+01
    3.096000000000e+05 4.000000000000e+00
 7 21  8  4 16  0  0.0 2.178153954446e-04 8.299139153678e-12 0.000000000000e+00
    7.200000000000e+01-2.937500000000e+00 4.808771733216e-09 1.823477440320e+00
   -3.129243850708e-07 1.523246103898e-02 7.269904017448e-06 5.153741636276e+03
    3.168000000000e+05-3.091990947723e-07-1.550767478799e+00-1.154839992523e-07
    9.510149874887e-01 2.382812500000e+02-2.313402645660e+00-8.080336578452e-09
   -4.046597128442e-10 1.000000000000e+00 2.169000000000e+03 0.000000000000e+00
    2.400000000000e+00 0.000000000000e+00-1.117587089539e-08 7.200000000000e+01
    3.096000000000e+05 4.000000000000e+00
11 21  8  4 16  0  0.0 2.846261486411e-05 5.229594535194e-12 0.000000000000e+00
    2.130000000000e+02-9.437500000000e+01 4.716625037793e-09-6.020063316601e-01
   -4.768371582031e-06 5.086300661787e-04 3.557652235031e-06 5.153679336548e+03
    3.168000000000e+05 2.980232238770e-08 1.642109124185e+00-3.911554813385e-08
    9.598067023617e-01 3.093125000000e+02 1.796480264397e+00-8.321060891300e-09
   -1.646497154644e-10 1.000000000000e+00 2.169000000000e+03 0.000000000000e+00
    1.536000000000e+03 6.300000000000e+01-5.587935447693e-09 4.690000000000e+02
    3.096000000000e+05 4.000000000000e+00
31 21  8  4 16  0  0.0-1.324391923845e-04-2.160049916711e-12 0.000000000000e+00
    3.300000000000e+01-4.968750000000e+00 4.684480841716e-09 1.330334913858e+00
    1.490116119385e-08 1.006598770618e-02 6.973743438721e-06 5.153576992035e+03
    3.168000000000e+05-1.452863216400e-07-1.533429899750e+00 9.499490261078e-08
    9.553107923005e-01 2.439062500000e+02 2.762021093608e-01-8.028548706994e-09
   -4.875203071777e-10 1.000000000000e+00 2.169000000000e+03 0.000000000000e+00
    2.400000000000e+00 0.000000000000e+00-1.303851604462e-08 3.300000000000e+01
    3.096000000000e+05 4.000000000000e+00
29 21  8  4 16  0  0.0-3.910139203072e-04-5.911715561524e-12 0.000000000000e+00
    5.500000000000e+01 7.765625000000e+01 4.163030549790e-09-1.571507525882e+00
    4.028901457787e-06 1.981856650673e-03 3.650784492493e-06 5.153600721359e+03
    3.168000000000e+05-6.519258022308e-08 6.090649274847e-01 0.000000000000e+00
    9.836551753349e-01 3.276562500000e+02 2.273077673072e+00-8.053192590653e-09
    2.800116636097e-10 1.000000000000e+00 2.169000000000e+03 0.000000000000e+00
    2.400000000000e+00 0.000000000000e+00-1.024454832077e-08 5.500000000000e+01
    3.096000000000e+05 4.000000000000e+00
16 21  8  4 16  0  0.0-3.682449460030e-04-6.252776074689e-12 0.000000000000e+00
    6.000000000000e+01 7.137500000000e+01 3.948021593804e-09-7.320251611348e-01
    4.002824425697e-06 1.216891338117e-02 8.916482329369e-06 5.153742238998e+03
    3.168000000000e+05 1.769512891769e-07-4.207931184881e-01 1.695007085800e-07
    9.729837423926e-01 2.122187500000e+02 6.800607558773e-01-7.832469110920e-09
   -9.357532635937e-11 1.000000000000e+00 2.169000000000e+03 0.000000000000e+00
    2.400000000000e+00 0.000000000000e+00-1.024454832077e-08 6.000000000000e+01
    3.096000000000e+05 4.000000000000e+00
30 21  8  4 16  0  0.0-4.585320129991e-04-4.206412995700e-12 0.000000000000e+00
    5.500000000000e+01 1.781250000000e+00 5.135213902271e-09 1.681950871525e+00
    1.601874828339e-07 5.369879188947e-03 7.029622793198e-06 5.153661945343e+03
    3.168000000000e+05-5.960464477539e-08-1.534646537034e+00 2.607703208923e-08
    9.362189199273e-01 2.336875000000e+02-2.736782175517e+00-8.205341785421e-09
   -4.435899058715e-10 1.000000000000e+00 2.169000000000e+03 0.000000000000e+00
    2.400000000000e+00 0.000000000000e+00 3.725290298462e-09 5.500000000000e+01
    3.096000000000e+05 4.000000000000e+00
27 21  8  4 16  0  0.0-1.733154058456e-04-5.684341886081e-12 0.000000000000e+00
    3.700000000000e+01 7.665625000000e+01 4.220890102729e-09-1.672101303034e+00
    3.848224878311e-06 9.429590543732e-03 3.525987267494e-06 5.153691633224e+03
    3.168000000000e+05 1.303851604462e-07 5.353096318291e-01-7.264316082001e-08
    9.755349266940e-01 3.162500000000e+02 6.367001873127e-01-7.988547040764e-09
    3.421571093598e-10 1.000000000000e+00 2.169000000000e+03 0.000000000000e+00
    2.400000000000e+00 0.000000000000e+00 1.862645149231e-09 3.700000000000e+01
    3.096000000000e+05 4.000000000000e+00
15 21  8  4 16  0  0.0-1.307334750891e-04 2.728484105319e-12 0.000000000000e+00
    3.600000000000e+01-1.093750000000e+00 5.218431654339e-09-2.516838667016e+00
   -5.215406417847e-08 1.342851435766e-02 7.506459951401e-06 5.153652368546e+03
    3.168000000000e+05 1.564621925354e-07-2.724170067635e+00-8.195638656616e-08
    9.294744418728e-01 2.164687500000e+02 1.006373089124e+00-8.021048394576e-09
    4.107313943255e-10 1.000000000000e+00 2.169000000000e+03 0.000000000000e+00
    2.400000000000e+00 0.000000000000e+00-1.071020960808e-08 3.600000000000e+01
    3.096000000000e+05 4.000000000000e+00
22 21  8  4 16  0  0.0-5.465387366712e-04 9.436007530894e-12 0.000000000000e+00
    4.600000000000e+01-8.028125000000e+01 4.849487714914e-09-2.699963213380e+00
   -4.168599843979e-06 6.843284820206e-03 9.195879101753e-06 5.153776229858e+03
    3.168000000000e+05-1.676380634308e-08 2.529041652302e+00 9.499490261078e-08
    9.360662366303e-01 1.868125000000e+02-9.104533688830e-01-7.983903990219e-09
    6.250260348431e-11 1.000000000000e+00 2.169000000000e+03 0.000000000000e+00
    2.400000000000e+00 0.000000000000e+00-1.769512891769e-08 4.600000000000e+01
    3.096000000000e+05 4.000000000000e+00
32 21  8  4 16  0  0.0 9.987503290176e-06-2.501110429876e-12 0.000000000000e+00
    4.800000000000e+01 6.718750000000e+00 4.738054501845e-09-9.121325764745e-01
    2.421438694000e-07 5.059693707153e-03 7.392838597298e-06 5.153697044373e+03
    3.168000000000e+05 9.685754776001e-08-2.612959291260e+00 9.313225746155e-08
    9.576282988453e-01 2.380937500000e+02-2.361799865622e+00-8.036406177146e-09
    2.264380034803e-10 1.000000000000e+00 2.169000000000e+03 0.000000000000e+00
    2.400000000000e+00 0.000000000000e+00 4.656612873077e-10 4.800000000000e+01
    3.096000000000e+05 4.000000000000e+00
20 21  8  4 16  0  0.0 5.198302678764e-04-2.273736754432e-13 0.000000000000e+00
    3.100000000000e+01-9.971875000000e+01 4.814843414697e-09-2.684472193899e+00
   -5.181878805161e-06 5.507554858923e-03 9.341165423393e-06 5.153633935928e+03
    3.168000000000e+05-1.508742570877e-07 2.482788524576e+00 3.352761268616e-08
    9.393508578366e-01 1.852187500000e+02 2.967755504095e+00-8.013548082158e-09
    2.607251459631e-11 1.000000000000e+00 2.169000000000e+03 0.000000000000e+00
    2.400000000000e+00 0.000000000000e+00-8.381903171539e-09 3.100000000000e+01
    3.096000000000e+05 4.000000000000e+00
